[{"OBJECT_NAME":"STARLINK-3460","OBJECT_ID":"2022-016AT","EPOCH":"2026-03-09T21:24:50.905440","MEAN_MOTION":15.08842152,"ECCENTRICITY":0.00013543,"INCLINATION":53.2182,"RA_OF_ASC_NODE":308.2134,"ARG_OF_PERICENTER":97.9559,"MEAN_ANOMALY":262.1587,"EPHEMERIS_TYPE":0,"CLASSIFICATION_TYPE":"U","NORAD_CAT_ID":51755,"ELEMENT_SET_NO":999,"REV_AT_EPOCH":22373,"BSTAR":1.838882e-6,"MEAN_MOTION_DOT":-2.59e-6,"MEAN_MOTION_DDOT":0},{"OBJECT_NAME":"ATLAS 5 CENTAUR R\/B","OBJECT_ID":"2013-072P","EPOCH":"2026-03-09T21:36:10.628064","MEAN_MOTION":14.96443736,"ECCENTRICITY":0.0189428,"INCLINATION":120.4328,"RA_OF_ASC_NODE":111.5185,"ARG_OF_PERICENTER":160.796,"MEAN_ANOMALY":200.0359,"EPHEMERIS_TYPE":0,"CLASSIFICATION_TYPE":"U","NORAD_CAT_ID":39475,"ELEMENT_SET_NO":999,"REV_AT_EPOCH":9970,"BSTAR":0.00054929733,"MEAN_MOTION_DOT":8.701e-5,"MEAN_MOTION_DDOT":0}]
